CCSDS_OMM_VERS = 2.0
CREATION_DATE  = 
ORIGINATOR     = 

OBJECT_NAME    = 2025-234A
OBJECT_ID      = 2025-234A
CENTER_NAME    = EARTH
REF_FRAME      = TEME
TIME_SYSTEM    = UTC
MEAN_ELEMENT_THEORY = SGP/SGP4

EPOCH          = 2025-11-17T10:35:58.229088
MEAN_MOTION    = 15.23565683
ECCENTRICITY   = .0014698
INCLINATION    = 97.4606
RA_OF_ASC_NODE = 26.8949
ARG_OF_PERICENTER = 182.7960
MEAN_ANOMALY   = 177.3197

EPHEMERIS_TYPE = 0
CLASSIFICATION_TYPE = U
NORAD_CAT_ID   = 66053
ELEMENT_SET_NO = 999
REV_AT_EPOCH   = 446
BSTAR          = .17682E-2
MEAN_MOTION_DOT = .42536E-3
MEAN_MOTION_DDOT = 0

CCSDS_OMM_VERS = 2.0
CREATION_DATE  = 
ORIGINATOR     = 

OBJECT_NAME    = 2025-234B
OBJECT_ID      = 2025-234B
CENTER_NAME    = EARTH
REF_FRAME      = TEME
TIME_SYSTEM    = UTC
MEAN_ELEMENT_THEORY = SGP/SGP4

EPOCH          = 2025-11-17T11:06:56.547936
MEAN_MOTION    = 15.21481664
ECCENTRICITY   = .0014989
INCLINATION    = 97.5035
RA_OF_ASC_NODE = 27.0251
ARG_OF_PERICENTER = 174.1162
MEAN_ANOMALY   = 186.0252

EPHEMERIS_TYPE = 0
CLASSIFICATION_TYPE = U
NORAD_CAT_ID   = 66054
ELEMENT_SET_NO = 999
REV_AT_EPOCH   = 446
BSTAR          = .50446E-3
MEAN_MOTION_DOT = .11316E-3
MEAN_MOTION_DDOT = 0

CCSDS_OMM_VERS = 2.0
CREATION_DATE  = 
ORIGINATOR     = 

OBJECT_NAME    = 2025-234C
OBJECT_ID      = 2025-234C
CENTER_NAME    = EARTH
REF_FRAME      = TEME
TIME_SYSTEM    = UTC
MEAN_ELEMENT_THEORY = SGP/SGP4

EPOCH          = 2025-11-17T11:03:29.079936
MEAN_MOTION    = 15.21594226
ECCENTRICITY   = .0015699
INCLINATION    = 97.4558
RA_OF_ASC_NODE = 26.8512
ARG_OF_PERICENTER = 175.8261
MEAN_ANOMALY   = 184.3109

EPHEMERIS_TYPE = 0
CLASSIFICATION_TYPE = U
NORAD_CAT_ID   = 66055
ELEMENT_SET_NO = 999
REV_AT_EPOCH   = 446
BSTAR          = .41305E-3
MEAN_MOTION_DOT = .9284E-4
MEAN_MOTION_DDOT = 0

CCSDS_OMM_VERS = 2.0
CREATION_DATE  = 
ORIGINATOR     = 

OBJECT_NAME    = 2025-234D
OBJECT_ID      = 2025-234D
CENTER_NAME    = EARTH
REF_FRAME      = TEME
TIME_SYSTEM    = UTC
MEAN_ELEMENT_THEORY = SGP/SGP4

EPOCH          = 2025-11-17T10:53:16.130688
MEAN_MOTION    = 15.22556103
ECCENTRICITY   = .0015226
INCLINATION    = 97.4538
RA_OF_ASC_NODE = 26.8522
ARG_OF_PERICENTER = 176.1224
MEAN_ANOMALY   = 184.0133

EPHEMERIS_TYPE = 0
CLASSIFICATION_TYPE = U
NORAD_CAT_ID   = 66056
ELEMENT_SET_NO = 999
REV_AT_EPOCH   = 445
BSTAR          = .12811E-2
MEAN_MOTION_DOT = .2985E-3
MEAN_MOTION_DDOT = 0

CCSDS_OMM_VERS = 2.0
CREATION_DATE  = 
ORIGINATOR     = 

OBJECT_NAME    = 2025-234E
OBJECT_ID      = 2025-234E
CENTER_NAME    = EARTH
REF_FRAME      = TEME
TIME_SYSTEM    = UTC
MEAN_ELEMENT_THEORY = SGP/SGP4

EPOCH          = 2025-11-17T11:18:22.959648
MEAN_MOTION    = 15.47979469
ECCENTRICITY   = .0007004
INCLINATION    = 97.4711
RA_OF_ASC_NODE = 27.4063
ARG_OF_PERICENTER = 244.4601
MEAN_ANOMALY   = 115.5926

EPHEMERIS_TYPE = 0
CLASSIFICATION_TYPE = U
NORAD_CAT_ID   = 66057
ELEMENT_SET_NO = 999
REV_AT_EPOCH   = 449
BSTAR          = .16596E-1
MEAN_MOTION_DOT = .944832E-2
MEAN_MOTION_DDOT = 0

CCSDS_OMM_VERS = 2.0
CREATION_DATE  = 
ORIGINATOR     = 

OBJECT_NAME    = STARLINK-35552
OBJECT_ID      = 2025-235A
CENTER_NAME    = EARTH
REF_FRAME      = TEME
TIME_SYSTEM    = UTC
MEAN_ELEMENT_THEORY = SGP/SGP4

EPOCH          = 2025-11-17T12:00:02.998944
MEAN_MOTION    = 15.52792626
ECCENTRICITY   = .0000874
INCLINATION    = 53.1608
RA_OF_ASC_NODE = 46.3031
ARG_OF_PERICENTER = 71.6468
MEAN_ANOMALY   = 344.1201

EPHEMERIS_TYPE = 0
CLASSIFICATION_TYPE = U
NORAD_CAT_ID   = 66058
ELEMENT_SET_NO = 999
REV_AT_EPOCH   = 581
BSTAR          = -.37009E-1
MEAN_MOTION_DOT = -.2074863E-1
MEAN_MOTION_DDOT = 0

CCSDS_OMM_VERS = 2.0
CREATION_DATE  = 
ORIGINATOR     = 

OBJECT_NAME    = STARLINK-35560
OBJECT_ID      = 2025-235B
CENTER_NAME    = EARTH
REF_FRAME      = TEME
TIME_SYSTEM    = UTC
MEAN_ELEMENT_THEORY = SGP/SGP4

EPOCH          = 2025-11-17T12:00:02.998944
MEAN_MOTION    = 15.39583859
ECCENTRICITY   = .0001674
INCLINATION    = 53.1608
RA_OF_ASC_NODE = 47.8916
ARG_OF_PERICENTER = 63.7813
MEAN_ANOMALY   = 286.3946

EPHEMERIS_TYPE = 0
CLASSIFICATION_TYPE = U
NORAD_CAT_ID   = 66059
ELEMENT_SET_NO = 999
REV_AT_EPOCH   = 581
BSTAR          = .88871E-3
MEAN_MOTION_DOT = .35271E-3
MEAN_MOTION_DDOT = 0

CCSDS_OMM_VERS = 2.0
CREATION_DATE  = 
ORIGINATOR     = 

OBJECT_NAME    = STARLINK-35558
OBJECT_ID      = 2025-235C
CENTER_NAME    = EARTH
REF_FRAME      = TEME
TIME_SYSTEM    = UTC
MEAN_ELEMENT_THEORY = SGP/SGP4

EPOCH          = 2025-11-17T12:00:02.998944
MEAN_MOTION    = 15.39570727
ECCENTRICITY   = .0001497
INCLINATION    = 53.1606
RA_OF_ASC_NODE = 48.0954
ARG_OF_PERICENTER = 73.9867
MEAN_ANOMALY   = 173.2004

EPHEMERIS_TYPE = 0
CLASSIFICATION_TYPE = U
NORAD_CAT_ID   = 66060
ELEMENT_SET_NO = 999
REV_AT_EPOCH   = 581
BSTAR          = .10049E-2
MEAN_MOTION_DOT = .39941E-3
MEAN_MOTION_DDOT = 0

CCSDS_OMM_VERS = 2.0
CREATION_DATE  = 
ORIGINATOR     = 

OBJECT_NAME    = STARLINK-35566
OBJECT_ID      = 2025-235D
CENTER_NAME    = EARTH
REF_FRAME      = TEME
TIME_SYSTEM    = UTC
MEAN_ELEMENT_THEORY = SGP/SGP4

EPOCH          = 2025-11-17T10:17:19.099392
MEAN_MOTION    = 15.49342282
ECCENTRICITY   = .0001711
INCLINATION    = 53.1623
RA_OF_ASC_NODE = 48.1366
ARG_OF_PERICENTER = 254.8271
MEAN_ANOMALY   = 105.2549

EPHEMERIS_TYPE = 0
CLASSIFICATION_TYPE = U
NORAD_CAT_ID   = 66061
ELEMENT_SET_NO = 999
REV_AT_EPOCH   = 571
BSTAR          = .29882E-2
MEAN_MOTION_DOT = .169599E-2
MEAN_MOTION_DDOT = 0

CCSDS_OMM_VERS = 2.0
CREATION_DATE  = 
ORIGINATOR     = 

OBJECT_NAME    = STARLINK-35421
OBJECT_ID      = 2025-235E
CENTER_NAME    = EARTH
REF_FRAME      = TEME
TIME_SYSTEM    = UTC
MEAN_ELEMENT_THEORY = SGP/SGP4

EPOCH          = 2025-11-17T12:00:02.998944
MEAN_MOTION    = 15.39583677
ECCENTRICITY   = .0001796
INCLINATION    = 53.1612
RA_OF_ASC_NODE = 47.9928
ARG_OF_PERICENTER = 85.5438
MEAN_ANOMALY   = 213.1215

EPHEMERIS_TYPE = 0
CLASSIFICATION_TYPE = U
NORAD_CAT_ID   = 66062
ELEMENT_SET_NO = 999
REV_AT_EPOCH   = 581
BSTAR          = .94006E-3
MEAN_MOTION_DOT = .37342E-3
MEAN_MOTION_DDOT = 0

CCSDS_OMM_VERS = 2.0
CREATION_DATE  = 
ORIGINATOR     = 

OBJECT_NAME    = STARLINK-35562
OBJECT_ID      = 2025-235F
CENTER_NAME    = EARTH
REF_FRAME      = TEME
TIME_SYSTEM    = UTC
MEAN_ELEMENT_THEORY = SGP/SGP4

EPOCH          = 2025-11-17T11:49:10.635744
MEAN_MOTION    = 15.49354282
ECCENTRICITY   = .000062
INCLINATION    = 53.1619
RA_OF_ASC_NODE = 47.8234
ARG_OF_PERICENTER = 106.5046
MEAN_ANOMALY   = 253.6031

EPHEMERIS_TYPE = 0
CLASSIFICATION_TYPE = U
NORAD_CAT_ID   = 66063
ELEMENT_SET_NO = 999
REV_AT_EPOCH   = 572
BSTAR          = .17185E-2
MEAN_MOTION_DOT = .96471E-3
MEAN_MOTION_DDOT = 0

CCSDS_OMM_VERS = 2.0
CREATION_DATE  = 
ORIGINATOR     = 

OBJECT_NAME    = STARLINK-35542
OBJECT_ID      = 2025-235G
CENTER_NAME    = EARTH
REF_FRAME      = TEME
TIME_SYSTEM    = UTC
MEAN_ELEMENT_THEORY = SGP/SGP4

EPOCH          = 2025-11-17T11:09:16.674912
MEAN_MOTION    = 15.39582018
ECCENTRICITY   = .0001387
INCLINATION    = 53.1615
RA_OF_ASC_NODE = 48.3608
ARG_OF_PERICENTER = 74.9721
MEAN_ANOMALY   = 285.1438

EPHEMERIS_TYPE = 0
CLASSIFICATION_TYPE = U
NORAD_CAT_ID   = 66064
ELEMENT_SET_NO = 999
REV_AT_EPOCH   = 571
BSTAR          = .19965E-2
MEAN_MOTION_DOT = .80201E-3
MEAN_MOTION_DDOT = 0

