2025-234A               
1 66053U 25234A   25321.44164617  .00042536  00000+0  17682-2 0  9997
2 66053  97.4606  26.8949 0014698 182.7960 177.3197 15.23565683  4466
2025-234B               
1 66054U 25234B   25321.46315449  .00011316  00000+0  50446-3 0  9999
2 66054  97.5035  27.0251 0014989 174.1162 186.0252 15.21481664  4468
2025-234C               
1 66055U 25234C   25321.46075324  .00009284  00000+0  41305-3 0  9990
2 66055  97.4558  26.8512 0015699 175.8261 184.3109 15.21594226  4463
2025-234D               
1 66056U 25234D   25321.45365892  .00029850  00000+0  12811-2 0  9992
2 66056  97.4538  26.8522 0015226 176.1224 184.0133 15.22556103  4458
2025-234E               
1 66057U 25234E   25321.47109907  .00944832  00000+0  16596-1 0  9997
2 66057  97.4711  27.4063 0007004 244.4601 115.5926 15.47979469  4496
STARLINK-35552          
1 66058U 25235A   25321.50003471 -.02074863  00000+0 -37009-1 0  9996
2 66058  53.1608  46.3031 0000874  71.6468 344.1201 15.52792626  5812
STARLINK-35560          
1 66059U 25235B   25321.50003471  .00035271  00000+0  88871-3 0  9998
2 66059  53.1608  47.8916 0001674  63.7813 286.3946 15.39583859  5810
STARLINK-35558          
1 66060U 25235C   25321.50003471  .00039941  00000+0  10049-2 0  9999
2 66060  53.1606  48.0954 0001497  73.9867 173.2004 15.39570727  5819
STARLINK-35566          
1 66061U 25235D   25321.42869328  .00169599  00000+0  29882-2 0  9990
2 66061  53.1623  48.1366 0001711 254.8271 105.2549 15.49342282  5717
STARLINK-35421          
1 66062U 25235E   25321.50003471  .00037342  00000+0  94006-3 0  9990
2 66062  53.1612  47.9928 0001796  85.5438 213.1215 15.39583677  5818
STARLINK-35562          
1 66063U 25235F   25321.49248421  .00096471  00000+0  17185-2 0  9995
2 66063  53.1619  47.8234 0000620 106.5046 253.6031 15.49354282  5723
STARLINK-35542          
1 66064U 25235G   25321.46477633  .00080201  00000+0  19965-2 0  9994
2 66064  53.1615  48.3608 0001387  74.9721 285.1438 15.39582018  5719
